#aV2012  1 19  0  0   .00000000      96 DD+AD WGS84 FIT  NGA
## 1671 345600.00000000   900.00000000 55945  .0000000000000
+   31     1  2  3  4  5  6  7  8  9 10 11 12 13 14 15 16 17
+         18 19 20 21 22 23 25 26 27 28 29 30 31 32  0  0  0
+          0  0  0  0  0  0  0  0  0  0  0  0  0  0  0  0  0
+          0  0  0  0  0  0  0  0  0  0  0  0  0  0  0  0  0
+          0  0  0  0  0  0  0  0  0  0  0  0  0  0  0  0  0
++         0  0  0  0  0  0  0  0  0  0  0  0  0  0  0  0  0
++         0  0  0  0  0  0  0  0  0  0  0  0  0  0  0  0  0
++         0  0  0  0  0  0  0  0  0  0  0  0  0  0  0  0  0
++         0  0  0  0  0  0  0  0  0  0  0  0  0  0  0  0  0
++         0  0  0  0  0  0  0  0  0  0  0  0  0  0  0  0  0
%c cc cc ccc ccc cccc cccc cccc cccc ccccc ccccc ccccc ccccc
%c cc cc ccc ccc cccc cccc cccc cccc ccccc ccccc ccccc ccccc
%f  0.0000000  0.000000000  0.00000000000  0.000000000000000
%f  0.0000000  0.000000000  0.00000000000  0.000000000000000
%i    0    0    0    0      0      0      0      0         0
%i    0    0    0    0      0      0      0      0         0
/*      NGA, ST. LOUIS,MO.                                  
/*   EPHEMERIS COMPUTED FROM  3 DAYS OF DATA                
/* CCCCCCCCCCCCCCCCCCCCCCCCCCCCCCCCCCCCCCCCCCCCCCCCCCCCCCCCC
/* CCCCCCCCCCCCCCCCCCCCCCCCCCCCCCCCCCCCCCCCCCCCCCCCCCCCCCCCC
*  2012  1 19 12 45   .00000000                                                 
P  1  20663.593173   9993.550031  13358.527614    185.748936                    
V  1   9232.975411  14436.333272 -25035.293418       .123746                    
P  2 -12277.338920 -22663.466034   7504.856911    375.365925                    
V  2   8258.335401   5174.038406  28988.305071       .016201                    
P  3   9325.842318  13677.910307 -21263.221264    824.084943                    
V  3 -24709.817414   8216.201378  -5389.219398       .049526                    
P  4  -1461.380658 -20530.937599  16364.943345     68.053875                    
V  4  15667.550313  14845.488251  20058.858739       .113563                    
P  5  -5250.523369 -20018.043196 -16600.307889   -272.441236                    
V  5   9207.584227 -19107.405535  20281.022194      -.046145                    
P  6   4383.702028  15044.816117 -21317.867119     25.428214                    
V  6 -26763.315823   6165.810080   -875.947652       .026854                    
P  7  15745.003968  -3331.409301 -21151.656236     51.014964                    
V  7  16473.005996  21167.095457   8682.913383       .026066                    
P  8   7649.943429 -13370.361894 -21474.186665       .413670                    
V  8  16079.596472  22239.246424  -8645.191243       .000640                    
P  9 -20256.027726 -13792.458929   9656.118334    132.830328                    
V  9  -6946.143780 -11221.432373 -28993.509199       .025093                    
P 10   9071.846750 -24722.867000   -817.109760    -26.146405                    
V 10   3638.116112    608.122203  31677.843525      -.013123                    
P 11  23399.525108  12031.929627   4346.112884   -224.333867                    
V 11   2197.566721   7301.660093 -29185.514683      -.036887                    
P 12 -14324.082936  -4047.962408  21998.008041     47.485126                    
V 12  10012.672121 -26007.403388   1909.743435       .022053                    
P 13  25595.156719  -5408.290507  -4981.996383    229.854038                    
V 13   6246.561782   1321.340171  31459.174560      -.021318                    
P 14 -11266.904092  14327.549447  19445.035317    190.628263                    
V 14 -24282.640253   1548.108985 -15483.746116       .014908                    
P 15 -22574.208562  -5257.766387 -13154.880126    -94.361855                    
V 15  15887.041351  -5554.394065 -24838.328449       .006648                    
P 16   3557.322601  20356.245251 -16490.898812   -219.538095                    
V 16  -9606.303222  18808.224393  21416.084945      -.017413                    
P 17  13751.955200 -14318.563332  17683.089311    153.868881                    
V 17  22255.377599  -1327.062073 -18787.533546      -.022083                    
P 18 -16461.207969  15617.666898 -13163.807091    177.494193                    
V 18   3154.712867 -17519.977880 -24469.741810       .018230                    
P 19  20341.052851   8797.651286 -14945.187929   -227.150891                    
V 19 -18552.653640   3374.930006 -22951.168319      -.038753                    
P 20  16011.233948   1244.016154  20988.626085     60.342528                    
V 20  -7758.183187  26022.877705   4415.918951       .006582                    
P 21 -13706.513263   7851.627270 -20934.370446   -198.648314                    
V 21 -17504.862751 -21498.770430   2736.828418      -.025338                    
P 22  -9881.710189  24578.769312   -487.943708    142.931903                    
V 22  -3381.596547  -2192.712268 -31080.439389       .000226                    
P 23  26115.324856    -40.295214   5828.929776    240.571498                    
V 23  -6827.510220   3495.592906  30404.231878      -.033324                    
P 25 -16753.832581   8899.510380  18550.584964     31.163785                    
V 25   6589.761803 -22703.888033  16862.084220       .002185                    
P 26 -11174.623438 -12999.598160 -21000.276210   -304.895054                    
V 26  24990.208085  -2636.119861 -11639.301485      -.142804                    
P 27 -19824.388145 -17651.017569   4311.497208    347.884252                    
V 27  -1831.736518  -4541.727062 -31320.664736       .038732                    
P 28  11951.139235 -23324.914237  -2857.283016    104.238507                    
V 28    642.089164   4965.577418 -32008.305545       .036596                    
P 29 -25808.748624   5398.351693  -2951.680562    276.612622                    
V 29  -4153.061080  -2248.348822  31539.050305       .035657                    
P 30   -853.019933  25452.371555  -7877.401570    -14.500545                    
V 30  -4946.828403   8570.366867  29565.233175      -.138512                    
P 31   3257.585151  21036.863124  15935.322368    197.504590                    
V 31 -13756.752262 -14486.582467  22446.733768       .047732                    
P 32  11659.601382  11037.618442  21447.011007   -394.938525                    
V 32 -11669.924446  23973.920800  -5598.074582      -.056131                    
EOF
